*******************************************************************************
 Revised: Jan 08, 2014                Uranus                                799
 
 PHYSICAL DATA (updated 2009-May-26):
  Mass (10^24 kg)       =    86.8103      Density (g/cm^3)       =  1.318
  Equat. radius (1 bar) = 25559+-4 km     Polar radius (km)      = 24973+-20
  Volumetric mean radius= 25362+-12 km    Flattening             =  0.02293

  Rotation period       = 17.24+-0.01 hr  Rot. rate(10^-4 rad/s) =  1.012   
  m = w^2a^3/GM         =  0.02954        Hydrostatic flat., fh  =  0.01987
  Inferred rot. period  = 17.14+-0.9 hr   ks = 3*J2/m            =  0.357
  Mom. of inert. I/MRo^2=  0.225          I/MRo^2 (upper bound)  =  0.232 
  Rocky core mass (Mc/M)=  0.0012         Y factor (He/H ratio)  =  0.262+-.048

  GM (km^3/s^2)         = 5,793,966       GM 1-sigma( km^3/s^2)  = +-23
  Equ. grav, ge (m/s^2) =  8.87           Pol. grav, gp (m/s^2)  =  9.19+-0.02

  Geometric albedo      =  0.51           Visual magnitude V(1,0)= -7.19
  Vis. mag. (opposition)= +5.52           Obliquity to orbit     = 97.86 deg
  Sidereal orbit period = 84.016846 yr    Sidereal orbit period  = 30687.153 d
  Mean daily motion     = 0.01176904 dg/d Mean orbit velocity    =  6.8352 km/s

  Atmos. temp. (1 bar)  =  76+-2 K        Heat flow/mass (x10^7) = 
  Planetary Solar Const =   3.71 W/m^2    Dipole tilt/offset     = 58.6dg/0.3Rp 
  Escape velocity (km/s)=  21.3           Mag.dip.mom(gauss-Rp^3)= 0.23
  Aroche(ice)/Rp        =  2.20           Hill's sphere rad., Rp = 2700
*******************************************************************************
 
 
*******************************************************************************
Ephemeris / WWW_USER Sat Jan 17 01:41:41 2015 Pasadena, USA      / Horizons    
*******************************************************************************
Target body name: Uranus (799)                    {source: URA111}
Center body name: Earth (399)                     {source: DE-0431LE-0431}
Center-site name: GEOCENTRIC
*******************************************************************************
Start time      : A.D. 2004-Jan-01 00:00:00.0000 UT      
Stop  time      : A.D. 2014-Dec-31 00:00:00.0000 UT      
Step-size       : 1440 minutes
*******************************************************************************
Target pole/equ : IAU_URANUS                      {East-longitude +}
Target radii    : 25559.0 x 25559.0 x 24973.0 km  {Equator, meridian, pole}    
Center geodetic : 0.00000000,0.00000000,0.0000000 {E-lon(deg),Lat(deg),Alt(km)}
Center cylindric: 0.00000000,0.00000000,0.0000000 {E-lon(deg),Dxy(km),Dz(km)}
Center pole/equ : High-precision EOP model        {East-longitude +}
Center radii    : 6378.1 x 6378.1 x 6356.8 km     {Equator, meridian, pole}    
Target primary  : Sun
Vis. interferer : MOON (R_eq= 1737.400) km        {source: DE-0431LE-0431}
Rel. light bend : Sun, EARTH                      {source: DE-0431LE-0431}
Rel. lght bnd GM: 1.3271E+11, 3.9860E+05 km^3/s^2                              
Atmos refraction: NO (AIRLESS)
RA format       : HMS
Time format     : CAL 
EOP file        : eop.150116.p150409                                           
EOP coverage    : DATA-BASED 1962-JAN-20 TO 2015-JAN-16. PREDICTS-> 2015-APR-08
Units conversion: 1 au= 149597870.700 km, c= 299792.458 km/s, 1 day= 86400.0 s 
Table cut-offs 1: Elevation (-90.0deg=NO ),Airmass (>38.000=NO), Daylight (NO )
Table cut-offs 2: Solar Elongation (  0.0,180.0=NO ),Local Hour Angle( 0.0=NO )
*******************************************************************************
 Date__(UT)__HR:MN      APmag  S-brt    S-T-O
*********************************************
$$SOE
 2011-Jun-13 00:00       5.87   8.31   2.8284
 2011-Jun-14 00:00       5.87   8.30   2.8387
 2011-Jun-15 00:00       5.86   8.28   2.8483
 2011-Jun-16 00:00       5.86   8.29   2.8571
 2011-Jun-17 00:00       5.86   8.31   2.8651
 2011-Jun-18 00:00       5.86   8.31   2.8724
 2011-Jun-19 00:00       5.86   8.29   2.8788
 2011-Jun-20 00:00       5.86   8.28   2.8846
 2011-Jun-21 00:00       5.85   8.30   2.8895
 2011-Jun-22 00:00       5.85   8.31   2.8936
 2011-Jun-23 00:00       5.85   8.30   2.8970
 2011-Jun-24 00:00       5.85   8.29   2.8996
 2011-Jun-25 00:00       5.85   8.29   2.9013
 2011-Jun-26 00:00       5.84   8.30   2.9023
 2011-Jun-27 00:00       5.84   8.31   2.9025
 2011-Jun-28 00:00       5.84   8.30   2.9019
 2011-Jun-29 00:00       5.84   8.28   2.9004
 2011-Jun-30 00:00       5.84   8.29   2.8982
 2011-Jul-01 00:00       5.84   8.31   2.8951
 2011-Jul-02 00:00       5.83   8.31   2.8913
 2011-Jul-03 00:00       5.83   8.29   2.8866
 2011-Jul-04 00:00       5.83   8.29   2.8811
 2011-Jul-05 00:00       5.83   8.30   2.8748
 2011-Jul-06 00:00       5.83   8.31   2.8677
 2011-Jul-07 00:00       5.82   8.30   2.8598
 2011-Jul-08 00:00       5.82   8.29   2.8510
 2011-Jul-09 00:00       5.82   8.29   2.8415
 2011-Jul-10 00:00       5.82   8.30   2.8312
 2011-Jul-11 00:00       5.82   8.31   2.8200
 2011-Jul-12 00:00       5.82   8.29   2.8081
 2011-Jul-13 00:00       5.81   8.28   2.7953
 2011-Jul-14 00:00       5.81   8.29   2.7818
 2011-Jul-15 00:00       5.81   8.31   2.7674
 2011-Jul-16 00:00       5.81   8.30   2.7523
 2011-Jul-17 00:00       5.81   8.29   2.7364
 2011-Jul-18 00:00       5.80   8.29   2.7196
 2011-Jul-19 00:00       5.80   8.30   2.7021
 2011-Jul-20 00:00       5.80   8.31   2.6838
 2011-Jul-21 00:00       5.80   8.30   2.6648
 2011-Jul-22 00:00       5.80   8.28   2.6449
 2011-Jul-23 00:00       5.80   8.29   2.6243
 2011-Jul-24 00:00       5.79   8.30   2.6029
 2011-Jul-25 00:00       5.79   8.31   2.5807
 2011-Jul-26 00:00       5.79   8.29   2.5577
 2011-Jul-27 00:00       5.79   8.28   2.5340
 2011-Jul-28 00:00       5.79   8.29   2.5096
 2011-Jul-29 00:00       5.79   8.31   2.4844
 2011-Jul-30 00:00       5.78   8.30   2.4584
 2011-Jul-31 00:00       5.78   8.29   2.4317
 2011-Aug-01 00:00       5.78   8.29   2.4042
 2011-Aug-02 00:00       5.78   8.30   2.3761
 2011-Aug-03 00:00       5.78   8.31   2.3472
 2011-Aug-04 00:00       5.78   8.30   2.3176
 2011-Aug-05 00:00       5.77   8.28   2.2873
 2011-Aug-06 00:00       5.77   8.29   2.2563
 2011-Aug-07 00:00       5.77   8.30   2.2246
 2011-Aug-08 00:00       5.77   8.31   2.1922
 2011-Aug-09 00:00       5.77   8.29   2.1592
 2011-Aug-10 00:00       5.77   8.28   2.1255
 2011-Aug-11 00:00       5.77   8.30   2.0912
 2011-Aug-12 00:00       5.76   8.31   2.0562
 2011-Aug-13 00:00       5.76   8.30   2.0206
 2011-Aug-14 00:00       5.76   8.28   1.9844
 2011-Aug-15 00:00       5.76   8.29   1.9475
 2011-Aug-16 00:00       5.76   8.30   1.9101
 2011-Aug-17 00:00       5.76   8.31   1.8721
 2011-Aug-18 00:00       5.76   8.29   1.8334
 2011-Aug-19 00:00       5.75   8.28   1.7942
 2011-Aug-20 00:00       5.75   8.29   1.7545
 2011-Aug-21 00:00       5.75   8.30   1.7142
 2011-Aug-22 00:00       5.75   8.30   1.6733
 2011-Aug-23 00:00       5.75   8.29   1.6319
 2011-Aug-24 00:00       5.75   8.28   1.5900
 2011-Aug-25 00:00       5.75   8.30   1.5476
 2011-Aug-26 00:00       5.75   8.31   1.5047
 2011-Aug-27 00:00       5.74   8.30   1.4613
 2011-Aug-28 00:00       5.74   8.28   1.4174
 2011-Aug-29 00:00       5.74   8.28   1.3731
 2011-Aug-30 00:00       5.74   8.30   1.3283
 2011-Aug-31 00:00       5.74   8.30   1.2831
 2011-Sep-01 00:00       5.74   8.29   1.2375
 2011-Sep-02 00:00       5.74   8.28   1.1915
 2011-Sep-03 00:00       5.74   8.29   1.1452
 2011-Sep-04 00:00       5.74   8.30   1.0984
 2011-Sep-05 00:00       5.74   8.30   1.0513
 2011-Sep-06 00:00       5.74   8.28   1.0039
 2011-Sep-07 00:00       5.73   8.28   0.9562
 2011-Sep-08 00:00       5.73   8.29   0.9081
 2011-Sep-09 00:00       5.73   8.30   0.8598
 2011-Sep-10 00:00       5.73   8.29   0.8112
 2011-Sep-11 00:00       5.73   8.28   0.7624
 2011-Sep-12 00:00       5.73   8.28   0.7133
 2011-Sep-13 00:00       5.73   8.30   0.6640
 2011-Sep-14 00:00       5.73   8.30   0.6145
 2011-Sep-15 00:00       5.73   8.29   0.5648
 2011-Sep-16 00:00       5.73   8.28   0.5149
 2011-Sep-17 00:00       5.73   8.29   0.4649
 2011-Sep-18 00:00       5.73   8.30   0.4148
 2011-Sep-19 00:00       5.73   8.30   0.3646
 2011-Sep-20 00:00       5.73   8.28   0.3143
 2011-Sep-21 00:00       5.73   8.28   0.2641
 2011-Sep-22 00:00       5.73   8.29   0.2140
 2011-Sep-23 00:00       5.73   8.30   0.1643
 2011-Sep-24 00:00       5.73   8.29   0.1154
 2011-Sep-25 00:00       5.73   8.28   0.0695
 2011-Sep-26 00:00       5.73   8.28   0.0391
 2011-Sep-27 00:00       5.73   8.30   0.0585
 2011-Sep-28 00:00       5.73   8.30   0.1025
 2011-Sep-29 00:00       5.73   8.28   0.1509
 2011-Sep-30 00:00       5.73   8.28   0.2005
 2011-Oct-01 00:00       5.73   8.29   0.2506
 2011-Oct-02 00:00       5.73   8.30   0.3008
 2011-Oct-03 00:00       5.73   8.30   0.3510
 2011-Oct-04 00:00       5.73   8.28   0.4012
 2011-Oct-05 00:00       5.73   8.28   0.4513
 2011-Oct-06 00:00       5.73   8.30   0.5013
 2011-Oct-07 00:00       5.73   8.30   0.5512
 2011-Oct-08 00:00       5.73   8.29   0.6009
 2011-Oct-09 00:00       5.73   8.28   0.6504
 2011-Oct-10 00:00       5.73   8.29   0.6997
 2011-Oct-11 00:00       5.73   8.30   0.7488
 2011-Oct-12 00:00       5.73   8.30   0.7976
 2011-Oct-13 00:00       5.73   8.28   0.8462
 2011-Oct-14 00:00       5.73   8.28   0.8945
 2011-Oct-15 00:00       5.74   8.29   0.9425
 2011-Oct-16 00:00       5.74   8.30   0.9902
 2011-Oct-17 00:00       5.74   8.30   1.0376
 2011-Oct-18 00:00       5.74   8.28   1.0846
 2011-Oct-19 00:00       5.74   8.28   1.1313
 2011-Oct-20 00:00       5.74   8.30   1.1775
 2011-Oct-21 00:00       5.74   8.30   1.2234
 2011-Oct-22 00:00       5.74   8.29   1.2689
 2011-Oct-23 00:00       5.74   8.28   1.3140
 2011-Oct-24 00:00       5.74   8.29   1.3587
 2011-Oct-25 00:00       5.75   8.30   1.4028
 2011-Oct-26 00:00       5.75   8.30   1.4466
